{
  "type": "FeatureCollection",
  "features": [
    {
      "type": "Feature",
      "properties": {
        "name": "Nagpur Municipal Corporation",
        "state": "Maharashtra",
        "country": "India"
      },
      "geometry": {
        "type": "Polygon",
        "coordinates": [
          [
            [79.003, 21.082],
            [79.018, 21.065],
            [79.042, 21.055],
            [79.072, 21.050],
            [79.100, 21.052],
            [79.128, 21.058],
            [79.152, 21.068],
            [79.168, 21.082],
            [79.178, 21.100],
            [79.180, 21.120],
            [79.178, 21.145],
            [79.172, 21.168],
            [79.162, 21.188],
            [79.148, 21.205],
            [79.130, 21.218],
            [79.108, 21.225],
            [79.085, 21.228],
            [79.060, 21.225],
            [79.040, 21.218],
            [79.022, 21.205],
            [79.010, 21.190],
            [79.002, 21.170],
            [78.998, 21.148],
            [78.995, 21.125],
            [78.998, 21.102],
            [79.003, 21.082]
          ]
        ]
      }
    }
  ]
}
